STARLINK-2022           
1 47643U 21012Z   24275.21375272 -.00000146  00000+0  91266-5 0  9999
2 47643  53.0531 246.0812 0001470  77.4218 282.6935 15.06394898200692
